IRIDIUM 39              
1 25042U 97069D   25151.55754603  .00000546  00000+0  13790-3 0  9990
2 25042  86.3943 218.2561 0017945  10.3398 349.8171 14.49201906446556
IRIDIUM 38              
1 25043U 97069E   25151.60891984  .00000451  00000+0  14229-3 0  9994
2 25043  86.3973 240.1254 0003712 121.1287 239.0275 14.38104563443571
IRIDIUM 42              
1 25077U 97077A   25151.52510319  .00000392  00000+0  12745-3 0  9996
2 25077  86.3973 246.3106 0002570 111.4446 248.7026 14.36339422438805
IRIDIUM 44              
1 25078U 97077B   25151.59399025  .00000401  00000+0  12046-3 0  9998
2 25078  86.3983 228.2502 0004189  89.3811 270.7868 14.40229550441317
IRIDIUM 45              
1 25104U 97082A   25151.22650254  .00021177  00000+0  76341-3 0  9999
2 25104  86.3590  56.1268 0119976  36.4953 324.4391 15.21755870449460
IRIDIUM 24              
1 25105U 97082B   25151.51907384  .00000512  00000+0  14967-3 0  9997
2 25105  86.3898  87.3706 0013012 125.8703 234.3707 14.42083546440811
IRIDIUM 51              
1 25262U 98018A   25151.25894030  .00032558  00000+0  74512-3 0  9992
2 25262  86.3845  64.2095 0085664 317.1618  42.2980 15.38776702444424
IRIDIUM 57              
1 25273U 98019B   25151.51668590  .00000327  00000+0  10622-3 0  9995
2 25273  86.3965 152.2455 0002344  91.2614 268.8851 14.35882560422398
